[{"OBJECT_NAME":"HORS 4 (RS82S)","OBJECT_ID":"2024-199V","EPOCH":"2026-03-09T21:47:16.934496","MEAN_MOTION":15.51209314,"ECCENTRICITY":0.00051454,"INCLINATION":97.3098,"RA_OF_ASC_NODE":303.8763,"ARG_OF_PERICENTER":286.2787,"MEAN_ANOMALY":73.7899,"EPHEMERIS_TYPE":0,"CLASSIFICATION_TYPE":"U","NORAD_CAT_ID":61754,"ELEMENT_SET_NO":999,"REV_AT_EPOCH":12221,"BSTAR":0.00073987436,"MEAN_MOTION_DOT":0.00043371,"MEAN_MOTION_DDOT":0},{"OBJECT_NAME":"STARLINK-36514","OBJECT_ID":"2026-020AA","EPOCH":"2026-03-09T22:00:01.999584","MEAN_MOTION":15.6241414,"ECCENTRICITY":0.00012447,"INCLINATION":42.9994,"RA_OF_ASC_NODE":140.2417,"ARG_OF_PERICENTER":280.6067,"MEAN_ANOMALY":239.0507,"EPHEMERIS_TYPE":0,"CLASSIFICATION_TYPE":"U","NORAD_CAT_ID":67641,"ELEMENT_SET_NO":999,"REV_AT_EPOCH":604,"BSTAR":-0.024506103,"MEAN_MOTION_DOT":-0.01968149,"MEAN_MOTION_DDOT":0}]
